{"type": "FeatureCollection", "features": [ {"type": "Feature", "properties": {"norad_id": 66667, "name": "PELICAN-5", "group": "last-30-days", "lat": 48.85338478167335, "lon": -98.93342718226143, "alt_km": 507.9454049171027, "timestamp": "2025-12-26T22:28:04.496675+00:00", "meta": {"OBJECT_NAME": "PELICAN-5", "OBJECT_ID": "2025-276B", "EPOCH": "2025-12-26T15:33:53.875008", "MEAN_MOTION": 15.17632934, "ECCENTRICITY": 0.0002467, "INCLINATION": 97.4406, "RA_OF_ASC_NODE": 72.1822, "ARG_OF_PERICENTER": 197.9598, "MEAN_ANOMALY": 162.1549, "EPHEMERIS_TYPE": 0, "CLASSIFICATION_TYPE": "U", "NORAD_CAT_ID": 66667, "ELEMENT_SET_NO": 999, "REV_AT_EPOCH": 423, "BSTAR": 0.00044436, "MEAN_MOTION_DOT": 8.878e-05, "MEAN_MOTION_DDOT": 0}, "tle": {"line1": "1 66667U 25276B   25360.64854022  .00008878  00000+0  44436-3 0  9994", "line2": "2 66667  97.4406  72.1822 0002467 197.9598 162.1549 15.17632934  4230"}}, "geometry": {"type": "Point", "coordinates": [-98.93342718226143, 48.85338478167335]}}, {"type": "Feature", "properties": {"norad_id": 66668, "name": "TRANSPORTER-15C", "group": "last-30-days", "lat": 71.35480651241815, "lon": 49.62698608779367, "alt_km": 504.03023164157, "timestamp": "2025-12-26T22:28:04.496686+00:00", "meta": {"OBJECT_NAME": "TRANSPORTER-15C", "OBJECT_ID": "2025-276C", "EPOCH": "2025-12-26T12:40:51.383136", "MEAN_MOTION": 15.21988406, "ECCENTRICITY": 0.0016178, "INCLINATION": 97.4332, "RA_OF_ASC_NODE": 71.9879, "ARG_OF_PERICENTER": 258.9437, "MEAN_ANOMALY": 100.9979, "EPHEMERIS_TYPE": 0, "CLASSIFICATION_TYPE": "U", "NORAD_CAT_ID": 66668, "ELEMENT_SET_NO": 999, "REV_AT_EPOCH": 421, "BSTAR": 0.00071782, "MEAN_MOTION_DOT": 0.00016393, "MEAN_MOTION_DDOT": 0}, "tle": {"line1": "1 66668U 25276C   25360.52837249  .00016393  00000+0  71782-3 0  9999", "line2": "2 66668  97.4332  71.9879 0016178 258.9437 100.9979 15.21988406  4210"}}, "geometry": {"type": "Point", "coordinates": [49.62698608779367, 71.35480651241815]}}, {"type": "Feature", "properties": {"norad_id": 66669, "name": "TRANSPORTER-15D", "group": "last-30-days", "lat": 57.61025156664201, "lon": 60.522244417051155, "alt_km": 512.7084805484001, "timestamp": "2025-12-26T22:28:04.496696+00:00", "meta": {"OBJECT_NAME": "TRANSPORTER-15D", "OBJECT_ID": "2025-276D", "EPOCH": "2025-12-26T04:48:12.178080", "MEAN_MOTION": 15.17501415, "ECCENTRICITY": 0.000747, "INCLINATION": 97.4282, "RA_OF_ASC_NODE": 71.6689, "ARG_OF_PERICENTER": 258.0077, "MEAN_ANOMALY": 102.032, "EPHEMERIS_TYPE": 0, "CLASSIFICATION_TYPE": "U", "NORAD_CAT_ID": 66669, "ELEMENT_SET_NO": 999, "REV_AT_EPOCH": 416, "BSTAR": 0.0012, "MEAN_MOTION_DOT": 0.00024063, "MEAN_MOTION_DDOT": 0}, "tle": {"line1": "1 66669U 25276D   25360.20014095  .00024063  00000+0  12000-2 0  9991", "line2": "2 66669  97.4282  71.6689 0007470 258.0077 102.0320 15.17501415  4160"}}, "geometry": {"type": "Point", "coordinates": [60.522244417051155, 57.61025156664201]}}, {"type": "Feature", "properties": {"norad_id": 66670, "name": "HUNITY", "group": "last-30-days", "lat": 55.40966657853876, "lon": 61.48437099834142, "alt_km": 511.7650330232191, "timestamp": "2025-12-26T22:28:04.496706+00:00", "meta": {"OBJECT_NAME": "HUNITY", "OBJECT_ID": "2025-276E", "EPOCH": "2025-12-26T17:28:37.844256", "MEAN_MOTION": 15.18497521, "ECCENTRICITY": 0.0011377, "INCLINATION": 97.4295, "RA_OF_ASC_NODE": 72.1877, "ARG_OF_PERICENTER": 255.2041, "MEAN_ANOMALY": 104.7933, "EPHEMERIS_TYPE": 0, "CLASSIFICATION_TYPE": "U", "NORAD_CAT_ID": 66670, "ELEMENT_SET_NO": 999, "REV_AT_EPOCH": 424, "BSTAR": 0.033111, "MEAN_MOTION_DOT": 0.00734474, "MEAN_MOTION_DDOT": 0}, "tle": {"line1": "1 66670U 25276E   25360.72821579  .00734474  00000+0  33111-1 0  9992", "line2": "2 66670  97.4295  72.1877 0011377 255.2041 104.7933 15.18497521  4243"}}, "geometry": {"type": "Point", "coordinates": [61.48437099834142, 55.40966657853876]}}, {"type": "Feature", "properties": {"norad_id": 66671, "name": "TRANSPORTER-15F", "group": "last-30-days", "lat": 61.68843448058505, "lon": 58.39509974905018, "alt_km": 511.8073715064538, "timestamp": "2025-12-26T22:28:04.496718+00:00", "meta": {"OBJECT_NAME": "TRANSPORTER-15F", "OBJECT_ID": "2025-276F", "EPOCH": "2025-12-26T17:26:38.950080", "MEAN_MOTION": 15.1721324, "ECCENTRICITY": 0.0005174, "INCLINATION": 97.4417, "RA_OF_ASC_NODE": 72.2316, "ARG_OF_PERICENTER": 235.0389, "MEAN_ANOMALY": 125.0359, "EPHEMERIS_TYPE": 0, "CLASSIFICATION_TYPE": "U", "NORAD_CAT_ID": 66671, "ELEMENT_SET_NO": 999, "REV_AT_EPOCH": 424, "BSTAR": 0.00067664, "MEAN_MOTION_DOT": 0.00013403, "MEAN_MOTION_DDOT": 0}, "tle": {"line1": "1 66671U 25276F   25360.72683970  .00013403  00000+0  67664-3 0  9998", "line2": "2 66671  97.4417  72.2316 0005174 235.0389 125.0359 15.17213240  4249"}}, "geometry": {"type": "Point", "coordinates": [58.39509974905018, 61.68843448058505]}}, {"type": "Feature", "properties": {"norad_id": 66672, "name": "TRANSPORTER-15G", "group": "last-30-days", "lat": 28.46455893600529, "lon": 68.35148873833839, "alt_km": 518.2291630858526, "timestamp": "2025-12-26T22:28:04.496729+00:00", "meta": {"OBJECT_NAME": "TRANSPORTER-15G", "OBJECT_ID": "2025-276G", "EPOCH": "2025-12-26T17:35:28.518144", "MEAN_MOTION": 15.16664193, "ECCENTRICITY": 0.0005564, "INCLINATION": 97.439, "RA_OF_ASC_NODE": 72.2143, "ARG_OF_PERICENTER": 233.212, "MEAN_ANOMALY": 126.8603, "EPHEMERIS_TYPE": 0, "CLASSIFICATION_TYPE": "U", "NORAD_CAT_ID": 66672, "ELEMENT_SET_NO": 999, "REV_AT_EPOCH": 424, "BSTAR": 0.00043252, "MEAN_MOTION_DOT": 8.405e-05, "MEAN_MOTION_DDOT": 0}, "tle": {"line1": "1 66672U 25276G   25360.73296896  .00008405  00000+0  43252-3 0  9990", "line2": "2 66672  97.4390  72.2143 0005564 233.2120 126.8603 15.16664193  4241"}}, "geometry": {"type": "Point", "coordinates": [68.35148873833839, 28.46455893600529]}}, {"type": "Feature", "properties": {"norad_id": 66673, "name": "TRANSPORTER-15H", "group": "last-30-days", "lat": 81.99702193659472, "lon": -39.29916560710576, "alt_km": 507.2843215413004, "timestamp": "2025-12-26T22:28:04.496742+00:00", "meta": {"OBJECT_NAME": "TRANSPORTER-15H", "OBJECT_ID": "2025-276H", "EPOCH": "2025-12-26T15:44:57.737184", "MEAN_MOTION": 15.22035425, "ECCENTRICITY": 0.0024005, "INCLINATION": 97.4359, "RA_OF_ASC_NODE": 72.1511, "ARG_OF_PERICENTER": 293.5495, "MEAN_ANOMALY": 66.322, "EPHEMERIS_TYPE": 0, "CLASSIFICATION_TYPE": "U", "NORAD_CAT_ID": 66673, "ELEMENT_SET_NO": 999, "REV_AT_EPOCH": 423, "BSTAR": 0.013348, "MEAN_MOTION_DOT": 0.00320359, "MEAN_MOTION_DDOT": 0}, "tle": {"line1": "1 66673U 25276H   25360.65622381  .00320359  00000+0  13348-1 0  9990", "line2": "2 66673  97.4359  72.1511 0024005 293.5495  66.3220 15.22035425  4239"}}, "geometry": {"type": "Point", "coordinates": [-39.29916560710576, 81.99702193659472]}}, {"type": "Feature", "properties": {"norad_id": 66674, "name": "TRANSPORTER-15J", "group": "last-30-days", "lat": 39.67864132045556, "lon": 66.19012207349023, "alt_km": 515.9561903002932, "timestamp": "2025-12-26T22:28:04.496752+00:00", "meta": {"OBJECT_NAME": "TRANSPORTER-15J", "OBJECT_ID": "2025-276J", "EPOCH": "2025-12-26T17:32:30.204096", "MEAN_MOTION": 15.16781418, "ECCENTRICITY": 0.0005105, "INCLINATION": 97.4367, "RA_OF_ASC_NODE": 72.2096, "ARG_OF_PERICENTER": 237.2002, "MEAN_ANOMALY": 122.874, "EPHEMERIS_TYPE": 0, "CLASSIFICATION_TYPE": "U", "NORAD_CAT_ID": 66674, "ELEMENT_SET_NO": 999, "REV_AT_EPOCH": 424, "BSTAR": 0.00025965, "MEAN_MOTION_DOT": 5.034e-05, "MEAN_MOTION_DDOT": 0}, "tle": {"line1": "1 66674U 25276J   25360.73090514  .00005034  00000+0  25965-3 0  9997", "line2": "2 66674  97.4367  72.2096 0005105 237.2002 122.8740 15.16781418  4246"}}, "geometry": {"type": "Point", "coordinates": [66.19012207349023, 39.67864132045556]}}, {"type": "Feature", "properties": {"norad_id": 66675, "name": "TRANSPORTER-15K", "group": "last-30-days", "lat": 54.88077903436238, "lon": 61.71675724897824, "alt_km": 512.9160926617742, "timestamp": "2025-12-26T22:28:04.496763+00:00", "meta": {"OBJECT_NAME": "TRANSPORTER-15K", "OBJECT_ID": "2025-276K", "EPOCH": "2025-12-26T17:28:28.826688", "MEAN_MOTION": 15.17099785, "ECCENTRICITY": 0.0005081, "INCLINATION": 97.4382, "RA_OF_ASC_NODE": 72.2179, "ARG_OF_PERICENTER": 241.8148, "MEAN_ANOMALY": 118.2572, "EPHEMERIS_TYPE": 0, "CLASSIFICATION_TYPE": "U", "NORAD_CAT_ID": 66675, "ELEMENT_SET_NO": 999, "REV_AT_EPOCH": 424, "BSTAR": 0.00060767, "MEAN_MOTION_DOT": 0.00011989, "MEAN_MOTION_DDOT": 0}, "tle": {"line1": "1 66675U 25276K   25360.72811142  .00011989  00000+0  60767-3 0  9990", "line2": "2 66675  97.4382  72.2179 0005081 241.8148 118.2572 15.17099785  4243"}}, "geometry": {"type": "Point", "coordinates": [61.71675724897824, 54.88077903436238]}}, {"type": "Feature", "properties": {"norad_id": 66676, "name": "TRANSPORTER-15L", "group": "last-30-days", "lat": 42.2928156970928, "lon": 65.5935816498129, "alt_km": 515.1442263763356, "timestamp": "2025-12-26T22:28:04.496773+00:00", "meta": {"OBJECT_NAME": "TRANSPORTER-15L", "OBJECT_ID": "2025-276L", "EPOCH": "2025-12-26T17:31:49.102752", "MEAN_MOTION": 15.1685167, "ECCENTRICITY": 0.0004822, "INCLINATION": 97.4383, "RA_OF_ASC_NODE": 72.2175, "ARG_OF_PERICENTER": 239.6924, "MEAN_ANOMALY": 120.3832, "EPHEMERIS_TYPE": 0, "CLASSIFICATION_TYPE": "U", "NORAD_CAT_ID": 66676, "ELEMENT_SET_NO": 999, "REV_AT_EPOCH": 424, "BSTAR": 0.0008076, "MEAN_MOTION_DOT": 0.0001585, "MEAN_MOTION_DDOT": 0}, "tle": {"line1": "1 66676U 25276L   25360.73042943  .00015850  00000+0  80760-3 0  9993", "line2": "2 66676  97.4383  72.2175 0004822 239.6924 120.3832 15.16851670  4241"}}, "geometry": {"type": "Point", "coordinates": [65.5935816498129, 42.2928156970928]}}]}